SES-1                   
1 36516U 10016A   26157.54136994 -.00000101  00000+0  00000+0 0  9992
2 36516   0.0185 312.2182 0002925 127.4104 269.2291  1.00271486 58927
ASTRA 3B                
1 36581U 10021A   26157.56602530  .00000151  00000+0  00000+0 0  9990
2 36581   1.4433  83.6808 0004451 350.2828  48.2715  1.00273458 58768
COMSATBW-2              
1 36582U 10021B   26157.56394529  .00000101  00000+0  00000+0 0  9992
2 36582   0.0170  21.8144 0002784  66.7645  22.6363  1.00269570 58857
BEIDOU-2 G3             
1 36590U 10024A   26157.36322444 -.00000124  00000+0  00000+0 0  9995
2 36590   4.4898  61.5611 0008551 350.1668  53.5102  1.00273266 58664
BADR-5                  
1 36592U 10025A   26157.56741198  .00000167  00000+0  00000+0 0  9997
2 36592   0.0602 118.0599 0003361  62.7305 308.9910  1.00277476 53118
COMS 1                  
1 36744U 10032A   26152.73864208 -.00000334  00000+0  00000+0 0  9993
2 36744   4.7700  75.5552 0001064 351.7830 216.9341  1.00271905 50939
ARABSAT-5A              
1 36745U 10032B   26157.56741198  .00000167  00000+0  00000+0 0  9995
2 36745   0.0691  49.7105 0005439  46.8186  33.2186  1.00268759 58546
ECHOSTAR 15             
1 36792U 10034A   26157.53781659  .00000013  00000+0  00000+0 0  9992
2 36792   0.0098 347.1439 0001920  86.8061 255.8071  1.00271594 58211
BEIDOU-2 IGSO-1         
1 36828U 10036A   26157.61323485 -.00000053  00000+0  00000+0 0  9997
2 36828  54.3006 163.0550 0059154 225.0540 195.3347  1.00275717 57991
NILESAT 201             
1 36830U 10037A   26157.34606435 -.00000044  00000+0  00000+0 0  9990
2 36830   0.0151 159.3661 0004449 305.0236 267.9678  1.00272131 58263
RASCOM-QAF 1R           
1 36831U 10037B   26157.34805770  .00000000  00000+0  00000+0 0  9995
2 36831   0.0291  53.3091 0006697  26.3366 303.3026  1.00270326 58191
AEHF-1 (USA 214)        
1 36868U 10039A   26156.92562021  .00000159  00000+0  00000+0 0  9994
2 36868   8.1906  68.1931 0004210   3.5200 185.8018  1.00269849 53549
XM-5                    
1 37185U 10053A   26157.46727648 -.00000010  00000+0  00000+0 0  9998
2 37185   0.0644 273.1607 0002885 279.9534 114.8036  1.00271222 57370
BSAT-3B                 
1 37207U 10056B   26157.62711057 -.00000337  00000+0  00000+0 0  9993
2 37207   0.0536 238.9614 0001257 301.8198  49.8706  1.00273736 51990
BEIDOU-2 G4             
1 37210U 10057A   26157.52174008 -.00000099  00000+0  00000+0 0  9991
2 37210   3.6201  69.0092 0004795 202.5062 331.2665  1.00272292 57187
SKYTERRA 1              
1 37218U 10061A   26157.38601304 -.00000106  00000+0  00000+0 0  9991
2 37218   5.1016  50.8616 0002882  19.2761 222.3110  1.00271121 57084
HYLAS 1                 
1 37237U 10065A   26157.15739169  .00000102  00000+0  00000+0 0  9997
2 37237   5.6150  73.1531 0001153 318.6107 293.2774  1.00272074  6774
INTELSAT 17 (IS-17)     
1 37238U 10065B   26157.57443200  .00000012  00000+0  00000+0 0  9992
2 37238   0.0046 310.5232 0002429 130.7411  86.5128  1.00272160 53147
BEIDOU-2 IGSO-2         
1 37256U 10068A   26153.71703494 -.00000206  00000+0  00000+0 0  9997
2 37256  47.5760 272.0122 0055435 212.8539 131.7633  1.00288733 56649
EUTELSAT KA-SAT 9A      
1 37258U 10069A   26157.56307862  .00000075  00000+0  00000+0 0  9999
2 37258   0.0608  11.1748 0004039 117.6931 337.8146  1.00271423 43905
HISPASAT 30W-5          
1 37264U 10070A   26157.41278075 -.00000203  00000+0  00000+0 0  9999
2 37264   0.0598 107.9317 0005225 349.7314 275.7899  1.00271038 53073
KOREASAT 6              
1 37265U 10070B   26157.61831368 -.00000098  00000+0  00000+0 0  9994
2 37265   0.0249  68.7801 0002343  13.2600 195.4804  1.00271906 56664
BEIDOU-2 IGSO-3         
1 37384U 11013A   26155.63444529 -.00000179  00000+0  00000+0 0  9993
2 37384  62.3902  40.2715 0034446 185.4993   3.7397  1.00271497 55536
INTELSAT 28 (IS-28)     
1 37392U 11016A   26157.41252075 -.00000212  00000+0  00000+0 0  9994
2 37392   1.7776  82.7562 0003996 352.8535 296.0409  1.00269481 53179
YAHSAT 1A               
1 37393U 11016B   26157.21523002  .00000000  00000+0  00000+0 0  9998
2 37393   0.0151 327.9851 0003107 114.0447 302.5899  1.00270878 42297
SBIRS GEO-1 (USA 230)   
1 37481U 11019A   26157.42902130  .00000112  00000+0  00000+0 0  9999
2 37481   4.5135  53.1317 0002145  12.7323  35.2249  1.00272363 55293
TELSTAR 14R             
1 37602U 11021A   26157.47758987 -.00000267  00000+0  00000+0 0  9993
2 37602   0.0105  33.4193 0002489  32.8220 297.5928  1.00271491 55725
GSAT-8                  
1 37605U 11022A   26157.21583669  .00000098  00000+0  00000+0 0  9993
2 37605   2.1020  81.9583 0002160 216.1491  89.3111  1.00271516 53100
ST-2                    
1 37606U 11022B   26157.57876536 -.00000198  00000+0  00000+0 0  9993
2 37606   0.0128  38.6980 0001878  51.5188 101.1613  1.00271470 55174
ZHONGXING-10            
1 37677U 11026A   26157.64235435 -.00000175  00000+0  00000+0 0  9995
2 37677   1.0191  84.3228 0003698 355.8311 131.6955  1.00271418 54893
SES-3                   
1 37748U 11035A   26157.54093661 -.00000088  00000+0  00000+0 0  9999
2 37748   1.2985  83.2061 0002792 347.5028 275.9855  1.00271286 54484
KAZSAT-2                
1 37749U 11035B   26157.36461111 -.00000184  00000+0  00000+0 0  9996
2 37749   0.0361 247.0142 0001248 251.5726 333.9767  1.00270354 53294
