OBJECT_NAME,OBJECT_ID,EPOCH,MEAN_MOTION,ECCENTRICITY,INCLINATION,RA_OF_ASC_NODE,ARG_OF_PERICENTER,MEAN_ANOMALY,EPHEMERIS_TYPE,CLASSIFICATION_TYPE,NORAD_CAT_ID,ELEMENT_SET_NO,REV_AT_EPOCH,BSTAR,MEAN_MOTION_DOT,MEAN_MOTION_DDOT
SES-1,2010-016A,2026-06-06T12:59:34.362816,1.00271486,.0002925,0.0185,312.2182,127.4104,269.2291,0,U,36516,999,5892,0,-.101E-5,0
ASTRA 3B,2010-021A,2026-06-06T13:35:04.585920,1.00273458,.00044512,1.4433,83.6808,350.2828,48.2715,0,U,36581,999,5876,0,.151E-5,0
COMSATBW-2,2010-021B,2026-06-06T13:32:04.873056,1.00269570,.00027848,0.0170,21.8144,66.7645,22.6363,0,U,36582,999,5885,0,.101E-5,0
BEIDOU-2 G3,2010-024A,2026-06-06T08:43:02.591616,1.00273266,.00085514,4.4898,61.5611,350.1668,53.5102,0,U,36590,999,5866,0,-.124E-5,0
BADR-5,2010-025A,2026-06-06T13:37:04.395072,1.00277476,.00033611,0.0602,118.0599,62.7305,308.9910,0,U,36592,999,5311,0,.167E-5,0
COMS 1,2010-032A,2026-06-01T17:43:38.675712,1.00271905,.00010648,4.7700,75.5552,351.7830,216.9341,0,U,36744,999,5093,0,-.334E-5,0
ARABSAT-5A,2010-032B,2026-06-06T13:37:04.395072,1.00268759,.00054394,0.0691,49.7105,46.8186,33.2186,0,U,36745,999,5854,0,.167E-5,0
ECHOSTAR 15,2010-034A,2026-06-06T12:54:27.353376,1.00271594,.00019209,0.0098,347.1439,86.8061,255.8071,0,U,36792,999,5821,0,.13E-6,0
BEIDOU-2 IGSO-1,2010-036A,2026-06-06T14:43:03.491040,1.00275717,.00591548,54.3006,163.0550,225.0540,195.3347,0,U,36828,999,5799,0,-.53E-6,0
NILESAT 201,2010-037A,2026-06-06T08:18:19.959840,1.00272131,.00044493,0.0151,159.3661,305.0236,267.9678,0,U,36830,999,5826,0,-.44E-6,0
RASCOM-QAF 1R,2010-037B,2026-06-06T08:21:12.185280,1.00270326,.00066975,0.0291,53.3091,26.3366,303.3026,0,U,36831,999,5819,0,0,0
AEHF-1 (USA 214),2010-039A,2026-06-05T22:12:53.586144,1.00269849,.00042102,8.1906,68.1931,3.5200,185.8018,0,U,36868,999,5354,0,.159E-5,0
XM-5,2010-053A,2026-06-06T11:12:52.687872,1.00271222,.00028852,0.0644,273.1607,279.9534,114.8036,0,U,37185,999,5737,0,-.1E-6,0
BSAT-3B,2010-056B,2026-06-06T15:03:02.353248,1.00273736,.00012578,0.0536,238.9614,301.8198,49.8706,0,U,37207,999,5199,0,-.337E-5,0
BEIDOU-2 G4,2010-057A,2026-06-06T12:31:18.342912,1.00272292,.00047955,3.6201,69.0092,202.5062,331.2665,0,U,37210,999,5718,0,-.99E-6,0
SKYTERRA 1,2010-061A,2026-06-06T09:15:51.526656,1.00271121,.00028828,5.1016,50.8616,19.2761,222.3110,0,U,37218,999,5708,0,-.106E-5,0
HYLAS 1,2010-065A,2026-06-06T03:46:38.642016,1.00272074,.00011539,5.6150,73.1531,318.6107,293.2774,0,U,37237,999,677,0,.102E-5,0
INTELSAT 17 (IS-17),2010-065B,2026-06-06T13:47:10.924800,1.00272160,.00024299,0.0046,310.5232,130.7411,86.5128,0,U,37238,999,5314,0,.12E-6,0
BEIDOU-2 IGSO-2,2010-068A,2026-06-02T17:12:31.818816,1.00288733,.0055435,47.5760,272.0122,212.8539,131.7633,0,U,37256,999,5664,0,-.206E-5,0
EUTELSAT KA-SAT 9A,2010-069A,2026-06-06T13:30:49.992768,1.00271423,.00040394,0.0608,11.1748,117.6931,337.8146,0,U,37258,999,4390,0,.75E-6,0
HISPASAT 30W-5,2010-070A,2026-06-06T09:54:24.256800,1.00271038,.0005225,0.0598,107.9317,349.7314,275.7899,0,U,37264,999,5307,0,-.203E-5,0
KOREASAT 6,2010-070B,2026-06-06T14:50:22.301952,1.00271906,.00023433,0.0249,68.7801,13.2600,195.4804,0,U,37265,999,5666,0,-.98E-6,0
BEIDOU-2 IGSO-3,2011-013A,2026-06-04T15:13:36.073056,1.00271497,.00344466,62.3902,40.2715,185.4993,3.7397,0,U,37384,999,5553,0,-.179E-5,0
INTELSAT 28 (IS-28),2011-016A,2026-06-06T09:54:01.792800,1.00269481,.00039963,1.7776,82.7562,352.8535,296.0409,0,U,37392,999,5317,0,-.212E-5,0
YAHSAT 1A,2011-016B,2026-06-06T05:09:55.873728,1.00270878,.00031078,0.0151,327.9851,114.0447,302.5899,0,U,37393,999,4229,0,0,0
SBIRS GEO-1 (USA 230),2011-019A,2026-06-06T10:17:47.440320,1.00272363,.00021453,4.5135,53.1317,12.7323,35.2249,0,U,37481,999,5529,0,.112E-5,0
TELSTAR 14R,2011-021A,2026-06-06T11:27:43.764768,1.00271491,.00024891,0.0105,33.4193,32.8220,297.5928,0,U,37602,999,5572,0,-.267E-5,0
GSAT-8,2011-022A,2026-06-06T05:10:48.290016,1.00271516,.00021602,2.1020,81.9583,216.1491,89.3111,0,U,37605,999,5310,0,.98E-6,0
ST-2,2011-022B,2026-06-06T13:53:25.327104,1.00271470,.00018789,0.0128,38.6980,51.5188,101.1613,0,U,37606,999,5517,0,-.198E-5,0
ZHONGXING-10,2011-026A,2026-06-06T15:24:59.415840,1.00271418,.00036986,1.0191,84.3228,355.8311,131.6955,0,U,37677,999,5489,0,-.175E-5,0
SES-3,2011-035A,2026-06-06T12:58:56.923104,1.00271286,.00027922,1.2985,83.2061,347.5028,275.9855,0,U,37748,999,5448,0,-.88E-6,0
KAZSAT-2,2011-035B,2026-06-06T08:45:02.399904,1.00270354,.00012485,0.0361,247.0142,251.5726,333.9767,0,U,37749,999,5329,0,-.184E-5,0
